[{"OBJECT_NAME":"STARLINK-6223","OBJECT_ID":"2023-088K","EPOCH":"2026-03-08T12:14:36.696480","MEAN_MOTION":15.02538628,"ECCENTRICITY":0.00012545,"INCLINATION":43.0026,"RA_OF_ASC_NODE":113.7455,"ARG_OF_PERICENTER":268.1992,"MEAN_ANOMALY":91.8707,"EPHEMERIS_TYPE":0,"CLASSIFICATION_TYPE":"U","NORAD_CAT_ID":57057,"ELEMENT_SET_NO":999,"REV_AT_EPOCH":15019,"BSTAR":1.7020194e-5,"MEAN_MOTION_DOT":2.6e-7,"MEAN_MOTION_DDOT":0},{"OBJECT_NAME":"FENGYUN 1C DEB","OBJECT_ID":"1999-025ATE","EPOCH":"2026-03-09T09:33:08.339616","MEAN_MOTION":15.01474525,"ECCENTRICITY":0.00075584,"INCLINATION":98.7312,"RA_OF_ASC_NODE":229.2263,"ARG_OF_PERICENTER":329.2571,"MEAN_ANOMALY":91.5818,"EPHEMERIS_TYPE":0,"CLASSIFICATION_TYPE":"U","NORAD_CAT_ID":30744,"ELEMENT_SET_NO":999,"REV_AT_EPOCH":99383,"BSTAR":0.0056947952,"MEAN_MOTION_DOT":0.0007432,"MEAN_MOTION_DDOT":0}]
